{
  "type": "FeatureCollection",
  "features": [
    {
      "type": "Feature",
      "properties": {
        "norad_id": 66422,
        "name": "STARLINK-35617",
        "group": "last-30-days",
        "lat": -11.560495967743808,
        "lon": 42.117565284913034,
        "alt_km": 443.9416820457891,
        "timestamp": "2025-12-11T13:55:00.912565+00:00",
        "meta_object_name": "STARLINK-35617",
        "meta_object_id": "2025-259A",
        "meta_epoch": "2025-12-11T06:12:42.415200",
        "meta_mean_motion": 15.40758187,
        "meta_eccentricity": 0.00015533,
        "meta_inclination": 43.0017,
        "meta_ra_of_asc_node": 56.6478,
        "meta_arg_of_pericenter": 312.1593,
        "meta_mean_anomaly": 47.9132,
        "meta_ephemeris_type": 0,
        "meta_classification_type": "U",
        "meta_norad_cat_id": 66422,
        "meta_element_set_no": 999,
        "meta_rev_at_epoch": 593,
        "meta_bstar": 0.0018519015,
        "meta_mean_motion_dot": 0.00078001,
        "meta_mean_motion_ddot": 0,
        "tle_line1": "1 66422U 25259A   25345.25882425  .00078001  00000+0  18519-2 0  9999",
        "tle_line2": "2 66422  43.0017  56.6478 0001553 312.1593  47.9132 15.40758187  5930"
      },
      "geometry": {
        "type": "Point",
        "coordinates": [
          42.117565284913034,
          -11.560495967743808
        ]
      }
    },
    {
      "type": "Feature",
      "properties": {
        "norad_id": 66423,
        "name": "STARLINK-35618",
        "group": "last-30-days",
        "lat": -3.1620053244718864,
        "lon": 51.367803648464196,
        "alt_km": 443.6702237190857,
        "timestamp": "2025-12-11T13:55:00.912635+00:00",
        "meta_object_name": "STARLINK-35618",
        "meta_object_id": "2025-259B",
        "meta_epoch": "2025-12-11T06:09:28.709856",
        "meta_mean_motion": 15.40759138,
        "meta_eccentricity": 7.604e-05,
        "meta_inclination": 42.9997,
        "meta_ra_of_asc_node": 56.6302,
        "meta_arg_of_pericenter": 289.5736,
        "meta_mean_anomaly": 70.5038,
        "meta_ephemeris_type": 0,
        "meta_classification_type": "U",
        "meta_norad_cat_id": 66423,
        "meta_element_set_no": 999,
        "meta_rev_at_epoch": 593,
        "meta_bstar": 0.0018297901,
        "meta_mean_motion_dot": 0.00077058,
        "meta_mean_motion_ddot": 0,
        "tle_line1": "1 66423U 25259B   25345.25658229  .00077058  00000+0  18298-2 0  9998",
        "tle_line2": "2 66423  42.9997  56.6302 0000760 289.5736  70.5038 15.40759138  5931"
      },
      "geometry": {
        "type": "Point",
        "coordinates": [
          51.367803648464196,
          -3.1620053244718864
        ]
      }
    },
    {
      "type": "Feature",
      "properties": {
        "norad_id": 66424,
        "name": "STARLINK-35588",
        "group": "last-30-days",
        "lat": 5.293601832184877,
        "lon": 60.439393611060744,
        "alt_km": 443.28538592932637,
        "timestamp": "2025-12-11T13:55:00.912654+00:00",
        "meta_object_name": "STARLINK-35588",
        "meta_object_id": "2025-259C",
        "meta_epoch": "2025-12-11T06:06:15.122880",
        "meta_mean_motion": 15.40734762,
        "meta_eccentricity": 0.00016472,
        "meta_inclination": 43.0027,
        "meta_ra_of_asc_node": 56.61,
        "meta_arg_of_pericenter": 252.0046,
        "meta_mean_anomaly": 108.0631,
        "meta_ephemeris_type": 0,
        "meta_classification_type": "U",
        "meta_norad_cat_id": 66424,
        "meta_element_set_no": 999,
        "meta_rev_at_epoch": 593,
        "meta_bstar": 0.0019803335,
        "meta_mean_motion_dot": 0.00083426,
        "meta_mean_motion_ddot": 0,
        "tle_line1": "1 66424U 25259C   25345.25434170  .00083426  00000+0  19803-2 0  9995",
        "tle_line2": "2 66424  43.0027  56.6100 0001647 252.0046 108.0631 15.40734762  5930"
      },
      "geometry": {
        "type": "Point",
        "coordinates": [
          60.439393611060744,
          5.293601832184877
        ]
      }
    },
    {
      "type": "Feature",
      "properties": {
        "norad_id": 66425,
        "name": "STARLINK-35555",
        "group": "last-30-days",
        "lat": 13.643574076877394,
        "lon": 69.80331453812704,
        "alt_km": 441.53940725185385,
        "timestamp": "2025-12-11T13:55:00.912667+00:00",
        "meta_object_name": "STARLINK-35555",
        "meta_object_id": "2025-259D",
        "meta_epoch": "2025-12-11T06:03:01.631808",
        "meta_mean_motion": 15.40751548,
        "meta_eccentricity": 9.448e-05,
        "meta_inclination": 42.9989,
        "meta_ra_of_asc_node": 56.5936,
        "meta_arg_of_pericenter": 289.1801,
        "meta_mean_anomaly": 70.8954,
        "meta_ephemeris_type": 0,
        "meta_classification_type": "U",
        "meta_norad_cat_id": 66425,
        "meta_element_set_no": 999,
        "meta_rev_at_epoch": 593,
        "meta_bstar": 0.0020925021,
        "meta_mean_motion_dot": 0.00088273,
        "meta_mean_motion_ddot": 0,
        "tle_line1": "1 66425U 25259D   25345.25210222  .00088273  00000+0  20925-2 0  9998",
        "tle_line2": "2 66425  42.9989  56.5936 0000944 289.1801  70.8954 15.40751548  5936"
      },
      "geometry": {
        "type": "Point",
        "coordinates": [
          69.80331453812704,
          13.643574076877394
        ]
      }
    },
    {
      "type": "Feature",
      "properties": {
        "norad_id": 66426,
        "name": "STARLINK-35589",
        "group": "last-30-days",
        "lat": 21.622275873187398,
        "lon": 79.85182671309771,
        "alt_km": 440.8481242775988,
        "timestamp": "2025-12-11T13:55:00.912678+00:00",
        "meta_object_name": "STARLINK-35589",
        "meta_object_id": "2025-259E",
        "meta_epoch": "2025-12-11T05:59:47.726016",
        "meta_mean_motion": 15.40759606,
        "meta_eccentricity": 0.00012833,
        "meta_inclination": 42.9978,
        "meta_ra_of_asc_node": 56.5785,
        "meta_arg_of_pericenter": 260.5179,
        "meta_mean_anomaly": 99.5533,
        "meta_ephemeris_type": 0,
        "meta_classification_type": "U",
        "meta_norad_cat_id": 66426,
        "meta_element_set_no": 999,
        "meta_rev_at_epoch": 593,
        "meta_bstar": 0.001965248,
        "meta_mean_motion_dot": 0.0008285,
        "meta_mean_motion_ddot": 0,
        "tle_line1": "1 66426U 25259E   25345.24985794  .00082850  00000+0  19652-2 0  9991",
        "tle_line2": "2 66426  42.9978  56.5785 0001283 260.5179  99.5533 15.40759606  5939"
      },
      "geometry": {
        "type": "Point",
        "coordinates": [
          79.85182671309771,
          21.622275873187398
        ]
      }
    },
    {
      "type": "Feature",
      "properties": {
        "norad_id": 66427,
        "name": "STARLINK-35611",
        "group": "last-30-days",
        "lat": 28.822602815194063,
        "lon": 90.83994633981911,
        "alt_km": 439.9507562953713,
        "timestamp": "2025-12-11T13:55:00.912690+00:00",
        "meta_object_name": "STARLINK-35611",
        "meta_object_id": "2025-259F",
        "meta_epoch": "2025-12-11T05:56:35.871360",
        "meta_mean_motion": 15.40713397,
        "meta_eccentricity": 0.00012295,
        "meta_inclination": 42.9982,
        "meta_ra_of_asc_node": 56.5593,
        "meta_arg_of_pericenter": 256.6421,
        "meta_mean_anomaly": 103.4299,
        "meta_ephemeris_type": 0,
        "meta_classification_type": "U",
        "meta_norad_cat_id": 66427,
        "meta_element_set_no": 999,
        "meta_rev_at_epoch": 593,
        "meta_bstar": 0.002026372,
        "meta_mean_motion_dot": 0.00085333,
        "meta_mean_motion_ddot": 0,
        "tle_line1": "1 66427U 25259F   25345.24763740  .00085333  00000+0  20264-2 0  9997",
        "tle_line2": "2 66427  42.9982  56.5593 0001229 256.6421 103.4299 15.40713397  5939"
      },
      "geometry": {
        "type": "Point",
        "coordinates": [
          90.83994633981911,
          28.822602815194063
        ]
      }
    },
    {
      "type": "Feature",
      "properties": {
        "norad_id": 66428,
        "name": "STARLINK-35610",
        "group": "last-30-days",
        "lat": 35.14888237226618,
        "lon": 103.69903966303147,
        "alt_km": 438.61231002395834,
        "timestamp": "2025-12-11T13:55:00.912702+00:00",
        "meta_object_name": "STARLINK-35610",
        "meta_object_id": "2025-259G",
        "meta_epoch": "2025-12-11T05:53:20.777568",
        "meta_mean_motion": 15.40759282,
        "meta_eccentricity": 9.377e-05,
        "meta_inclination": 42.9964,
        "meta_ra_of_asc_node": 56.5433,
        "meta_arg_of_pericenter": 269.0962,
        "meta_mean_anomaly": 90.9787,
        "meta_ephemeris_type": 0,
        "meta_classification_type": "U",
        "meta_norad_cat_id": 66428,
        "meta_element_set_no": 999,
        "meta_rev_at_epoch": 593,
        "meta_bstar": 0.0022253133,
        "meta_mean_motion_dot": 0.00093991,
        "meta_mean_motion_ddot": 0,
        "tle_line1": "1 66428U 25259G   25345.24537937  .00093991  00000+0  22253-2 0  9994",
        "tle_line2": "2 66428  42.9964  56.5433 0000937 269.0962  90.9787 15.40759282  5931"
      },
      "geometry": {
        "type": "Point",
        "coordinates": [
          103.69903966303147,
          35.14888237226618
        ]
      }
    }
  ]
}